ONEWEB-0528             
1 54643U 22166B   23311.61404677 -.00000321  00000+0 -80867-3 0  9993
2 54643  87.9234  73.6075 0001560  92.3040 267.8272 13.21831296 45701
ONEWEB-0539             
1 54644U 22166C   23312.10450580  .00000133  00000+0  28967-3 0  9995
2 54644  87.9236  73.5093 0001746  93.6186 266.5148 13.21828352 46218
ONEWEB-0540             
1 54645U 22166D   23311.79618879  .00000049  00000+0  87634-4 0  9990
2 54645  87.9237  73.5968 0001792  89.9806 270.1533 13.21827436 46186
ONEWEB-0542             
1 54646U 22166E   23312.03827167  .00000170  00000+0  38039-3 0  9990
2 54646  87.9234  73.5231 0002165  96.2174 263.9207 13.21824853 46213
ONEWEB-0545             
1 54647U 22166F   23311.77806614  .00000089  00000+0  18362-3 0  9991
2 54647  87.9236  73.6153 0002092  86.4211 273.7162 13.21827031 46155
ONEWEB-0580             
1 54648U 22166G   23311.82696469  .00000003  00000+0 -24324-4 0  9996
2 54648  87.9231  73.5601 0002244  96.7530 263.3860 13.21826541 46194
ONEWEB-0582             
1 54649U 22166H   23312.09661803  .00000153  00000+0  34012-3 0  9990
2 54649  87.9236  73.5465 0001653  86.2328 273.8994 13.21827203 46213
ONEWEB-0583             
1 54650U 22166J   23311.57777604 -.00000082  00000+0 -22943-3 0  9994
2 54650  87.9237  73.6562 0001239 100.6419 259.4855 13.21825632 45687
